ORBCOMM FM115           
1 41186U 15081H   25298.86546448  .00001003  00000+0  22887-3 0  9999
2 41186  46.9969 137.9385 0001215 287.0760  72.9995 14.62774714526906
ORBCOMM FM108           
1 41187U 15081J   25298.82825634  .00001532  00000+0  36344-3 0  9993
2 41187  47.0044 209.9048 0002293 208.5774 151.4986 14.58434958525864
ORBCOMM FM117           
1 41188U 15081K   25298.79454502  .00001466  00000+0  34936-3 0  9993
2 41188  47.0009 208.7836 0002943 217.2808 142.7873 14.58436033525904
ORBCOMM FM116           
1 41189U 15081L   25298.70852256  .00001245  00000+0  30176-3 0  9990
2 41189  47.0024 298.9814 0001525   5.0113 355.0787 14.58508901524700
